ONEWEB-0259             
1 48977U 21060L   25334.51796031  .00000164  00000+0  39425-3 0  9999
2 48977  87.9038 268.3406 0001979  73.7165 286.4184 13.16594287213483
ONEWEB-0260             
1 48978U 21060M   25334.50925522  .00000041  00000+0  73242-4 0  9998
2 48978  87.9024 268.3577 0001880  89.6349 270.4998 13.16592769213466
ONEWEB-0261             
1 48979U 21060N   25334.55515704 -.00000019  00000+0 -82663-4 0  9995
2 48979  87.9026 268.3498 0002283  78.1987 281.9400 13.16596655213520
ONEWEB-0262             
1 48980U 21060P   25334.53537714  .00000024  00000+0  29123-4 0  9996
2 48980  87.9038 268.3262 0001964  68.2665 291.8675 13.16594292213486
ONEWEB-0263             
1 48981U 21060Q   25334.26305611  .00000102  00000+0  23288-3 0  9998
2 48981  87.9025 268.3958 0002196  74.0329 286.1043 13.16594430213418
ONEWEB-0264             
1 48982U 21060R   25334.52824864  .00000084  00000+0  18501-3 0  9995
2 48982  87.9027 268.3468 0001988  81.3282 278.8074 13.16596745213451
ONEWEB-0266             
1 48984U 21060T   25334.54963095 -.00000041  00000+0 -13968-3 0  9996
2 48984  87.9037 268.3271 0001761  71.0153 289.1169 13.16593888213442
ONEWEB-0267             
1 48985U 21060U   25334.56070941  .00000063  00000+0  13201-3 0  9990
2 48985  87.9033 268.3246 0002068  77.7416 282.3947 13.16595416213456
ONEWEB-0268             
1 48986U 21060V   25334.52904784  .00000007  00000+0 -16258-4 0  9993
2 48986  87.9036 268.3393 0001840  78.2867 281.8471 13.16594221213714
ONEWEB-0269             
1 48987U 21060W   25334.28205741  .00000042  00000+0  76005-4 0  9998
2 48987  87.9025 268.4116 0001700  81.2483 278.8841 13.16594995213456
ONEWEB-0270             
1 48988U 21060X   25334.29947551 -.00000057  00000+0 -18371-3 0  9991
2 48988  87.9035 268.3867 0002193  69.9897 290.1470 13.16595309213498
ONEWEB-0271             
1 48989U 21060Y   25334.51480265  .00000100  00000+0  22704-3 0  9993
2 48989  87.9040 268.3322 0002071  76.4773 283.6589 13.16593865213529
ONEWEB-0272             
1 48990U 21060Z   25334.53697153 -.00000508  00000+0 -13633-2 0  9997
2 48990  87.9031 268.3448 0002159  81.8452 278.2924 13.16588707213477
ONEWEB-0273             
1 48991U 21060AA  25334.55913151  .00000041  00000+0  74061-4 0  9993
2 48991  87.9035 268.3347 0001951  73.4280 286.7065 13.16594588213457
ONEWEB-0274             
1 48992U 21060AB  25334.28047167  .00000128  00000+0  30118-3 0  9999
2 48992  87.9024 268.4143 0001952  87.0054 273.1300 13.16593506213453
ONEWEB-0275             
1 48993U 21060AC  25334.57337580  .00000063  00000+0  13058-3 0  9995
2 48993  87.9034 268.3254 0001934  78.2042 281.9306 13.16593520213422
ONEWEB-0276             
1 48994U 21060AD  25334.53062672  .00000009  00000+0 -88209-5 0  9992
2 48994  87.9035 268.3332 0001880  70.4245 289.7088 13.16594273213430
