[{"OBJECT_NAME":"ONEWEB-0259","OBJECT_ID":"2021-060L","EPOCH":"2025-11-30T12:25:51.770784","MEAN_MOTION":13.16594287,"ECCENTRICITY":0.00019794,"INCLINATION":87.9038,"RA_OF_ASC_NODE":268.3406,"ARG_OF_PERICENTER":73.7165,"MEAN_ANOMALY":286.4184,"EPHEMERIS_TYPE":0,"CLASSIFICATION_TYPE":"U","NORAD_CAT_ID":48977,"ELEMENT_SET_NO":999,"REV_AT_EPOCH":21348,"BSTAR":0.00039425192,"MEAN_MOTION_DOT":1.64e-6,"MEAN_MOTION_DDOT":0},{"OBJECT_NAME":"ONEWEB-0260","OBJECT_ID":"2021-060M","EPOCH":"2025-11-30T12:13:19.651008","MEAN_MOTION":13.16592769,"ECCENTRICITY":0.00018801,"INCLINATION":87.9024,"RA_OF_ASC_NODE":268.3577,"ARG_OF_PERICENTER":89.6349,"MEAN_ANOMALY":270.4998,"EPHEMERIS_TYPE":0,"CLASSIFICATION_TYPE":"U","NORAD_CAT_ID":48978,"ELEMENT_SET_NO":999,"REV_AT_EPOCH":21346,"BSTAR":7.3241913e-5,"MEAN_MOTION_DOT":4.1e-7,"MEAN_MOTION_DDOT":0},{"OBJECT_NAME":"ONEWEB-0261","OBJECT_ID":"2021-060N","EPOCH":"2025-11-30T13:19:25.568256","MEAN_MOTION":13.16596655,"ECCENTRICITY":0.00022835,"INCLINATION":87.9026,"RA_OF_ASC_NODE":268.3498,"ARG_OF_PERICENTER":78.1987,"MEAN_ANOMALY":281.94,"EPHEMERIS_TYPE":0,"CLASSIFICATION_TYPE":"U","NORAD_CAT_ID":48979,"ELEMENT_SET_NO":999,"REV_AT_EPOCH":21352,"BSTAR":-8.2663397e-5,"MEAN_MOTION_DOT":-1.9e-7,"MEAN_MOTION_DDOT":0},{"OBJECT_NAME":"ONEWEB-0262","OBJECT_ID":"2021-060P","EPOCH":"2025-11-30T12:50:56.584896","MEAN_MOTION":13.16594292,"ECCENTRICITY":0.00019644,"INCLINATION":87.9038,"RA_OF_ASC_NODE":268.3262,"ARG_OF_PERICENTER":68.2665,"MEAN_ANOMALY":291.8675,"EPHEMERIS_TYPE":0,"CLASSIFICATION_TYPE":"U","NORAD_CAT_ID":48980,"ELEMENT_SET_NO":999,"REV_AT_EPOCH":21348,"BSTAR":2.9123226e-5,"MEAN_MOTION_DOT":2.4e-7,"MEAN_MOTION_DDOT":0},{"OBJECT_NAME":"ONEWEB-0263","OBJECT_ID":"2021-060Q","EPOCH":"2025-11-30T06:18:48.047904","MEAN_MOTION":13.1659443,"ECCENTRICITY":0.00021969,"INCLINATION":87.9025,"RA_OF_ASC_NODE":268.3958,"ARG_OF_PERICENTER":74.0329,"MEAN_ANOMALY":286.1043,"EPHEMERIS_TYPE":0,"CLASSIFICATION_TYPE":"U","NORAD_CAT_ID":48981,"ELEMENT_SET_NO":999,"REV_AT_EPOCH":21341,"BSTAR":0.00023287582,"MEAN_MOTION_DOT":1.02e-6,"MEAN_MOTION_DDOT":0},{"OBJECT_NAME":"ONEWEB-0264","OBJECT_ID":"2021-060R","EPOCH":"2025-11-30T12:40:40.682496","MEAN_MOTION":13.16596745,"ECCENTRICITY":0.00019881,"INCLINATION":87.9027,"RA_OF_ASC_NODE":268.3468,"ARG_OF_PERICENTER":81.3282,"MEAN_ANOMALY":278.8074,"EPHEMERIS_TYPE":0,"CLASSIFICATION_TYPE":"U","NORAD_CAT_ID":48982,"ELEMENT_SET_NO":999,"REV_AT_EPOCH":21345,"BSTAR":0.00018501455,"MEAN_MOTION_DOT":8.4e-7,"MEAN_MOTION_DDOT":0},{"OBJECT_NAME":"ONEWEB-0266","OBJECT_ID":"2021-060T","EPOCH":"2025-11-30T13:11:28.114080","MEAN_MOTION":13.16593888,"ECCENTRICITY":0.00017612,"INCLINATION":87.9037,"RA_OF_ASC_NODE":268.3271,"ARG_OF_PERICENTER":71.0153,"MEAN_ANOMALY":289.1169,"EPHEMERIS_TYPE":0,"CLASSIFICATION_TYPE":"U","NORAD_CAT_ID":48984,"ELEMENT_SET_NO":999,"REV_AT_EPOCH":21344,"BSTAR":-0.00013968117,"MEAN_MOTION_DOT":-4.1e-7,"MEAN_MOTION_DDOT":0},{"OBJECT_NAME":"ONEWEB-0267","OBJECT_ID":"2021-060U","EPOCH":"2025-11-30T13:27:25.293024","MEAN_MOTION":13.16595416,"ECCENTRICITY":0.00020681,"INCLINATION":87.9033,"RA_OF_ASC_NODE":268.3246,"ARG_OF_PERICENTER":77.7416,"MEAN_ANOMALY":282.3947,"EPHEMERIS_TYPE":0,"CLASSIFICATION_TYPE":"U","NORAD_CAT_ID":48985,"ELEMENT_SET_NO":999,"REV_AT_EPOCH":21345,"BSTAR":0.00013200653,"MEAN_MOTION_DOT":6.3e-7,"MEAN_MOTION_DDOT":0},{"OBJECT_NAME":"ONEWEB-0268","OBJECT_ID":"2021-060V","EPOCH":"2025-11-30T12:41:49.733376","MEAN_MOTION":13.16594221,"ECCENTRICITY":0.00018407,"INCLINATION":87.9036,"RA_OF_ASC_NODE":268.3393,"ARG_OF_PERICENTER":78.2867,"MEAN_ANOMALY":281.8471,"EPHEMERIS_TYPE":0,"CLASSIFICATION_TYPE":"U","NORAD_CAT_ID":48986,"ELEMENT_SET_NO":999,"REV_AT_EPOCH":21371,"BSTAR":-1.6258364e-5,"MEAN_MOTION_DOT":7.0e-8,"MEAN_MOTION_DDOT":0},{"OBJECT_NAME":"ONEWEB-0269","OBJECT_ID":"2021-060W","EPOCH":"2025-11-30T06:46:09.760224","MEAN_MOTION":13.16594995,"ECCENTRICITY":0.00017007,"INCLINATION":87.9025,"RA_OF_ASC_NODE":268.4116,"ARG_OF_PERICENTER":81.2483,"MEAN_ANOMALY":278.8841,"EPHEMERIS_TYPE":0,"CLASSIFICATION_TYPE":"U","NORAD_CAT_ID":48987,"ELEMENT_SET_NO":999,"REV_AT_EPOCH":21345,"BSTAR":7.6004801e-5,"MEAN_MOTION_DOT":4.2e-7,"MEAN_MOTION_DDOT":0},{"OBJECT_NAME":"ONEWEB-0270","OBJECT_ID":"2021-060X","EPOCH":"2025-11-30T07:11:14.684064","MEAN_MOTION":13.16595309,"ECCENTRICITY":0.00021931,"INCLINATION":87.9035,"RA_OF_ASC_NODE":268.3867,"ARG_OF_PERICENTER":69.9897,"MEAN_ANOMALY":290.147,"EPHEMERIS_TYPE":0,"CLASSIFICATION_TYPE":"U","NORAD_CAT_ID":48988,"ELEMENT_SET_NO":999,"REV_AT_EPOCH":21349,"BSTAR":-0.0001837149,"MEAN_MOTION_DOT":-5.7e-7,"MEAN_MOTION_DDOT":0},{"OBJECT_NAME":"ONEWEB-0271","OBJECT_ID":"2021-060Y","EPOCH":"2025-11-30T12:21:18.948960","MEAN_MOTION":13.16593865,"ECCENTRICITY":0.00020719,"INCLINATION":87.904,"RA_OF_ASC_NODE":268.3322,"ARG_OF_PERICENTER":76.4773,"MEAN_ANOMALY":283.6589,"EPHEMERIS_TYPE":0,"CLASSIFICATION_TYPE":"U","NORAD_CAT_ID":48989,"ELEMENT_SET_NO":999,"REV_AT_EPOCH":21352,"BSTAR":0.00022703608,"MEAN_MOTION_DOT":1.0e-6,"MEAN_MOTION_DDOT":0},{"OBJECT_NAME":"ONEWEB-0272","OBJECT_ID":"2021-060Z","EPOCH":"2025-11-30T12:53:14.340192","MEAN_MOTION":13.16588707,"ECCENTRICITY":0.00021593,"INCLINATION":87.9031,"RA_OF_ASC_NODE":268.3448,"ARG_OF_PERICENTER":81.8452,"MEAN_ANOMALY":278.2924,"EPHEMERIS_TYPE":0,"CLASSIFICATION_TYPE":"U","NORAD_CAT_ID":48990,"ELEMENT_SET_NO":999,"REV_AT_EPOCH":21347,"BSTAR":-0.0013632836,"MEAN_MOTION_DOT":-5.08e-6,"MEAN_MOTION_DDOT":0},{"OBJECT_NAME":"ONEWEB-0273","OBJECT_ID":"2021-060AA","EPOCH":"2025-11-30T13:25:08.962464","MEAN_MOTION":13.16594588,"ECCENTRICITY":0.00019519,"INCLINATION":87.9035,"RA_OF_ASC_NODE":268.3347,"ARG_OF_PERICENTER":73.428,"MEAN_ANOMALY":286.7065,"EPHEMERIS_TYPE":0,"CLASSIFICATION_TYPE":"U","NORAD_CAT_ID":48991,"ELEMENT_SET_NO":999,"REV_AT_EPOCH":21345,"BSTAR":7.4060608e-5,"MEAN_MOTION_DOT":4.1e-7,"MEAN_MOTION_DDOT":0},{"OBJECT_NAME":"ONEWEB-0274","OBJECT_ID":"2021-060AB","EPOCH":"2025-11-30T06:43:52.752288","MEAN_MOTION":13.16593506,"ECCENTRICITY":0.00019521,"INCLINATION":87.9024,"RA_OF_ASC_NODE":268.4143,"ARG_OF_PERICENTER":87.0054,"MEAN_ANOMALY":273.13,"EPHEMERIS_TYPE":0,"CLASSIFICATION_TYPE":"U","NORAD_CAT_ID":48992,"ELEMENT_SET_NO":999,"REV_AT_EPOCH":21345,"BSTAR":0.00030118222,"MEAN_MOTION_DOT":1.28e-6,"MEAN_MOTION_DDOT":0},{"OBJECT_NAME":"ONEWEB-0275","OBJECT_ID":"2021-060AC","EPOCH":"2025-11-30T13:45:39.669120","MEAN_MOTION":13.1659352,"ECCENTRICITY":0.00019345,"INCLINATION":87.9034,"RA_OF_ASC_NODE":268.3254,"ARG_OF_PERICENTER":78.2042,"MEAN_ANOMALY":281.9306,"EPHEMERIS_TYPE":0,"CLASSIFICATION_TYPE":"U","NORAD_CAT_ID":48993,"ELEMENT_SET_NO":999,"REV_AT_EPOCH":21342,"BSTAR":0.00013058226,"MEAN_MOTION_DOT":6.3e-7,"MEAN_MOTION_DDOT":0},{"OBJECT_NAME":"ONEWEB-0276","OBJECT_ID":"2021-060AD","EPOCH":"2025-11-30T12:44:06.148608","MEAN_MOTION":13.16594273,"ECCENTRICITY":0.00018802,"INCLINATION":87.9035,"RA_OF_ASC_NODE":268.3332,"ARG_OF_PERICENTER":70.4245,"MEAN_ANOMALY":289.7088,"EPHEMERIS_TYPE":0,"CLASSIFICATION_TYPE":"U","NORAD_CAT_ID":48994,"ELEMENT_SET_NO":999,"REV_AT_EPOCH":21343,"BSTAR":-8.82093e-6,"MEAN_MOTION_DOT":9.0e-8,"MEAN_MOTION_DDOT":0}]
